STARLINK-2085
1 27369C 21005W   21325.13592651  .00008381  00000-0  56152-3 0  3257
2 27369  53.0538 247.6283 0001949  61.5119  34.7758 15.06390828    10
